{"type": "FeatureCollection", "features": [ {"type": "Feature", "properties": {"norad_id": 40792, "name": "COSMOS 2251 DEB", "group": "cosmos-2251-debris", "lat": -60.62925811541609, "lon": 33.155693587454614, "alt_km": 682.5807263970701, "timestamp": "2025-12-04T07:39:36.529843+00:00", "meta": {"OBJECT_NAME": "COSMOS 2251 DEB", "OBJECT_ID": "1993-036BVV", "EPOCH": "2025-12-03T22:41:09.153312", "MEAN_MOTION": 14.67400307, "ECCENTRICITY": 0.00162419, "INCLINATION": 74.0452, "RA_OF_ASC_NODE": 64.429, "ARG_OF_PERICENTER": 171.5941, "MEAN_ANOMALY": 308.7742, "EPHEMERIS_TYPE": 0, "CLASSIFICATION_TYPE": "U", "NORAD_CAT_ID": 40792, "ELEMENT_SET_NO": 999, "REV_AT_EPOCH": 63055, "BSTAR": 0.0023973164, "MEAN_MOTION_DOT": 0.0001358, "MEAN_MOTION_DDOT": 0}, "tle": {"line1": "1 40792U 93036BVV 25337.94524483  .00013580  00000+0  23973-2 0  9994", "line2": "2 40792  74.0452  64.4290 0016241 171.5941 308.7742 14.67400307630555"}}, "geometry": {"type": "Point", "coordinates": [33.155693587454614, -60.62925811541609]}}, {"type": "Feature", "properties": {"norad_id": 40793, "name": "COSMOS 2251 DEB", "group": "cosmos-2251-debris", "lat": -36.81196448907315, "lon": 167.47631376397686, "alt_km": 730.2576568137574, "timestamp": "2025-12-04T07:39:36.529852+00:00", "meta": {"OBJECT_NAME": "COSMOS 2251 DEB", "OBJECT_ID": "1993-036BVW", "EPOCH": "2025-11-17T22:59:08.433600", "MEAN_MOTION": 14.0559149, "ECCENTRICITY": 0.02150611, "INCLINATION": 73.9793, "RA_OF_ASC_NODE": 208.5839, "ARG_OF_PERICENTER": 10.058, "MEAN_ANOMALY": 350.4754, "EPHEMERIS_TYPE": 0, "CLASSIFICATION_TYPE": "U", "NORAD_CAT_ID": 40793, "ELEMENT_SET_NO": 999, "REV_AT_EPOCH": 67897, "BSTAR": 0.0015211732, "MEAN_MOTION_DOT": 3.024e-05, "MEAN_MOTION_DDOT": 0}, "tle": {"line1": "1 40793U 93036BVW 25321.95773650  .00003024  00000+0  15212-2 0  9990", "line2": "2 40793  73.9793 208.5839 0215061  10.0580 350.4754 14.05591490678970"}}, "geometry": {"type": "Point", "coordinates": [167.47631376397686, -36.81196448907315]}}, {"type": "Feature", "properties": {"norad_id": 40794, "name": "COSMOS 2251 DEB", "group": "cosmos-2251-debris", "lat": -58.044068069415474, "lon": 113.78023039639446, "alt_km": 594.2987340487534, "timestamp": "2025-12-04T07:39:36.529861+00:00", "meta": {"OBJECT_NAME": "COSMOS 2251 DEB", "OBJECT_ID": "1993-036BVX", "EPOCH": "2025-11-30T04:39:36.279360", "MEAN_MOTION": 14.91253423, "ECCENTRICITY": 0.00103638, "INCLINATION": 73.9758, "RA_OF_ASC_NODE": 149.5129, "ARG_OF_PERICENTER": 264.0956, "MEAN_ANOMALY": 215.1976, "EPHEMERIS_TYPE": 0, "CLASSIFICATION_TYPE": "U", "NORAD_CAT_ID": 40794, "ELEMENT_SET_NO": 999, "REV_AT_EPOCH": 61737, "BSTAR": 0.0047311798, "MEAN_MOTION_DOT": 0.00047418, "MEAN_MOTION_DDOT": 0}, "tle": {"line1": "1 40794U 93036BVX 25334.19416990  .00047418  00000+0  47312-2 0  9993", "line2": "2 40794  73.9758 149.5129 0010363 264.0956 215.1976 14.91253423617370"}}, "geometry": {"type": "Point", "coordinates": [113.78023039639446, -58.044068069415474]}}, {"type": "Feature", "properties": {"norad_id": 40796, "name": "COSMOS 2251 DEB", "group": "cosmos-2251-debris", "lat": -51.48382552631237, "lon": 137.7280223878938, "alt_km": 592.4614476837678, "timestamp": "2025-12-04T07:39:36.529870+00:00", "meta": {"OBJECT_NAME": "COSMOS 2251 DEB", "OBJECT_ID": "1993-036BVZ", "EPOCH": "2025-12-02T06:27:45.283968", "MEAN_MOTION": 14.81470556, "ECCENTRICITY": 0.005597, "INCLINATION": 74.0116, "RA_OF_ASC_NODE": 162.895, "ARG_OF_PERICENTER": 301.3277, "MEAN_ANOMALY": 235.9171, "EPHEMERIS_TYPE": 0, "CLASSIFICATION_TYPE": "U", "NORAD_CAT_ID": 40796, "ELEMENT_SET_NO": 999, "REV_AT_EPOCH": 76003, "BSTAR": 0.00090141, "MEAN_MOTION_DOT": 7.227e-05, "MEAN_MOTION_DDOT": 0}, "tle": {"line1": "1 40796U 93036BVZ 25336.26927412  .00007227  00000+0  90141-3 0  9994", "line2": "2 40796  74.0116 162.8950 0055970 301.3277 235.9171 14.81470556760032"}}, "geometry": {"type": "Point", "coordinates": [137.7280223878938, -51.48382552631237]}}, {"type": "Feature", "properties": {"norad_id": 40797, "name": "COSMOS 2251 DEB", "group": "cosmos-2251-debris", "lat": -17.644124731842442, "lon": -61.89051815373065, "alt_km": 586.0683044905263, "timestamp": "2025-12-04T07:39:36.529879+00:00", "meta": {"OBJECT_NAME": "COSMOS 2251 DEB", "OBJECT_ID": "1993-036BWA", "EPOCH": "2025-11-19T18:43:16.602528", "MEAN_MOTION": 15.10509474, "ECCENTRICITY": 0.00703947, "INCLINATION": 73.92, "RA_OF_ASC_NODE": 143.0892, "ARG_OF_PERICENTER": 60.6639, "MEAN_ANOMALY": 300.156, "EPHEMERIS_TYPE": 0, "CLASSIFICATION_TYPE": "U", "NORAD_CAT_ID": 40797, "ELEMENT_SET_NO": 999, "REV_AT_EPOCH": 64297, "BSTAR": 0.00072810385, "MEAN_MOTION_DOT": 0.00012707, "MEAN_MOTION_DDOT": 0}, "tle": {"line1": "1 40797U 93036BWA 25323.78005327  .00012707  00000+0  72810-3 0  9992", "line2": "2 40797  73.9200 143.0892 0070394  60.6639 300.1560 15.10509474642979"}}, "geometry": {"type": "Point", "coordinates": [-61.89051815373065, -17.644124731842442]}}, {"type": "Feature", "properties": {"norad_id": 40799, "name": "COSMOS 2251 DEB", "group": "cosmos-2251-debris", "lat": -67.77235028935495, "lon": 70.62467159170126, "alt_km": 560.4499423323341, "timestamp": "2025-12-04T07:39:36.529888+00:00", "meta": {"OBJECT_NAME": "COSMOS 2251 DEB", "OBJECT_ID": "1993-036BWC", "EPOCH": "2025-12-03T15:56:34.043424", "MEAN_MOTION": 14.96530915, "ECCENTRICITY": 0.0118644, "INCLINATION": 73.9247, "RA_OF_ASC_NODE": 116.8388, "ARG_OF_PERICENTER": 0.7827, "MEAN_ANOMALY": 359.3519, "EPHEMERIS_TYPE": 0, "CLASSIFICATION_TYPE": "U", "NORAD_CAT_ID": 40799, "ELEMENT_SET_NO": 999, "REV_AT_EPOCH": 49841, "BSTAR": 0.00050356325, "MEAN_MOTION_DOT": 6.569e-05, "MEAN_MOTION_DDOT": 0}, "tle": {"line1": "1 40799U 93036BWC 25337.66428291  .00006569  00000+0  50356-3 0  9995", "line2": "2 40799  73.9247 116.8388 0118644   0.7827 359.3519 14.96530915498410"}}, "geometry": {"type": "Point", "coordinates": [70.62467159170126, -67.77235028935495]}}, {"type": "Feature", "properties": {"norad_id": 40802, "name": "COSMOS 2251 DEB", "group": "cosmos-2251-debris", "lat": -10.032950122841939, "lon": -7.566570506487234, "alt_km": 632.8707732419452, "timestamp": "2025-12-04T07:39:36.529898+00:00", "meta": {"OBJECT_NAME": "COSMOS 2251 DEB", "OBJECT_ID": "1993-036BWF", "EPOCH": "2025-12-03T19:25:10.185888", "MEAN_MOTION": 14.77466187, "ECCENTRICITY": 0.00634015, "INCLINATION": 74.0391, "RA_OF_ASC_NODE": 170.5311, "ARG_OF_PERICENTER": 271.0455, "MEAN_ANOMALY": 88.3457, "EPHEMERIS_TYPE": 0, "CLASSIFICATION_TYPE": "U", "NORAD_CAT_ID": 40802, "ELEMENT_SET_NO": 999, "REV_AT_EPOCH": 64277, "BSTAR": 0.00093875569, "MEAN_MOTION_DOT": 6.888e-05, "MEAN_MOTION_DDOT": 0}, "tle": {"line1": "1 40802U 93036BWF 25337.80914567  .00006888  00000+0  93876-3 0  9990", "line2": "2 40802  74.0391 170.5311 0063401 271.0455  88.3457 14.77466187642778"}}, "geometry": {"type": "Point", "coordinates": [-7.566570506487234, -10.032950122841939]}}, {"type": "Feature", "properties": {"norad_id": 40803, "name": "COSMOS 2251 DEB", "group": "cosmos-2251-debris", "lat": 73.7933165737372, "lon": 167.2555012259758, "alt_km": 736.3199349012375, "timestamp": "2025-12-04T07:39:36.529907+00:00", "meta": {"OBJECT_NAME": "COSMOS 2251 DEB", "OBJECT_ID": "1993-036BWG", "EPOCH": "2025-11-28T13:57:57.324672", "MEAN_MOTION": 14.51758448, "ECCENTRICITY": 0.00344541, "INCLINATION": 74.0129, "RA_OF_ASC_NODE": 78.5975, "ARG_OF_PERICENTER": 297.2945, "MEAN_ANOMALY": 62.4709, "EPHEMERIS_TYPE": 0, "CLASSIFICATION_TYPE": "U", "NORAD_CAT_ID": 40803, "ELEMENT_SET_NO": 999, "REV_AT_EPOCH": 58547, "BSTAR": 0.00037309243, "MEAN_MOTION_DOT": 1.482e-05, "MEAN_MOTION_DDOT": 0}, "tle": {"line1": "1 40803U 93036BWG 25332.58191348  .00001482  00000+0  37309-3 0  9999", "line2": "2 40803  74.0129  78.5975 0034454 297.2945  62.4709 14.51758448585473"}}, "geometry": {"type": "Point", "coordinates": [167.2555012259758, 73.7933165737372]}}, {"type": "Feature", "properties": {"norad_id": 40808, "name": "COSMOS 2251 DEB", "group": "cosmos-2251-debris", "lat": -69.21405236912747, "lon": 30.65408201983848, "alt_km": 673.0434496894495, "timestamp": "2025-12-04T07:39:36.529916+00:00", "meta": {"OBJECT_NAME": "COSMOS 2251 DEB", "OBJECT_ID": "1993-036BWM", "EPOCH": "2025-12-03T19:07:41.637216", "MEAN_MOTION": 14.6721279, "ECCENTRICITY": 0.00101252, "INCLINATION": 74.0401, "RA_OF_ASC_NODE": 162.7296, "ARG_OF_PERICENTER": 199.8657, "MEAN_ANOMALY": 179.6058, "EPHEMERIS_TYPE": 0, "CLASSIFICATION_TYPE": "U", "NORAD_CAT_ID": 40808, "ELEMENT_SET_NO": 999, "REV_AT_EPOCH": 63488, "BSTAR": 0.0022517576, "MEAN_MOTION_DOT": 0.00012683, "MEAN_MOTION_DDOT": 0}, "tle": {"line1": "1 40808U 93036BWM 25337.79700969  .00012683  00000+0  22518-2 0  9997", "line2": "2 40808  74.0401 162.7296 0010125 199.8657 179.6058 14.67212790634889"}}, "geometry": {"type": "Point", "coordinates": [30.65408201983848, -69.21405236912747]}}, {"type": "Feature", "properties": {"norad_id": 40810, "name": "COSMOS 2251 DEB", "group": "cosmos-2251-debris", "lat": 69.38050499091858, "lon": 140.30622480735636, "alt_km": 703.437080278487, "timestamp": "2025-12-04T07:39:36.529925+00:00", "meta": {"OBJECT_NAME": "COSMOS 2251 DEB", "OBJECT_ID": "1993-036BWP", "EPOCH": "2025-12-02T07:34:18.151104", "MEAN_MOTION": 14.58589191, "ECCENTRICITY": 0.00187807, "INCLINATION": 74.0355, "RA_OF_ASC_NODE": 94.5842, "ARG_OF_PERICENTER": 246.5096, "MEAN_ANOMALY": 113.4096, "EPHEMERIS_TYPE": 0, "CLASSIFICATION_TYPE": "U", "NORAD_CAT_ID": 40810, "ELEMENT_SET_NO": 999, "REV_AT_EPOCH": 61531, "BSTAR": 0.001131408, "MEAN_MOTION_DOT": 5.252e-05, "MEAN_MOTION_DDOT": 0}, "tle": {"line1": "1 40810U 93036BWP 25336.31548786  .00005252  00000+0  11314-2 0  9990", "line2": "2 40810  74.0355  94.5842 0018780 246.5096 113.4096 14.58589191615318"}}, "geometry": {"type": "Point", "coordinates": [140.30622480735636, 69.38050499091858]}}]}